{
  "type": "FeatureCollection",
  "features": [
    {
      "type": "Feature",
      "properties": {
        "norad_id": 66906,
        "name": "1998-067XS",
        "group": "last-30-days",
        "lat": -34.62496384260902,
        "lon": -51.56175962992769,
        "alt_km": 415.7459224437289,
        "timestamp": "2025-12-22T05:49:02.187454+00:00",
        "meta_object_name": "1998-067XS",
        "meta_object_id": "1998-067XS",
        "meta_epoch": "2025-12-21T16:28:28.030656",
        "meta_mean_motion": 15.51020739,
        "meta_eccentricity": 0.0002929,
        "meta_inclination": 51.6318,
        "meta_ra_of_asc_node": 98.0337,
        "meta_arg_of_pericenter": 244.8837,
        "meta_mean_anomaly": 115.1848,
        "meta_ephemeris_type": 0,
        "meta_classification_type": "U",
        "meta_norad_cat_id": 66906,
        "meta_element_set_no": 999,
        "meta_rev_at_epoch": 300,
        "meta_bstar": 0.0004307,
        "meta_mean_motion_dot": 0.00025109,
        "meta_mean_motion_ddot": 0,
        "tle_line1": "1 66906U 98067XS  25355.68643554  .00025109  00000+0  43070-3 0  9991",
        "tle_line2": "2 66906  51.6318  98.0337 0002929 244.8837 115.1848 15.51020739  3005"
      },
      "geometry": {
        "type": "Point",
        "coordinates": [
          -51.56175962992769,
          -34.62496384260902
        ]
      }
    },
    {
      "type": "Feature",
      "properties": {
        "norad_id": 66907,
        "name": "1998-067XT",
        "group": "last-30-days",
        "lat": -49.78899626667454,
        "lon": 25.57619391465515,
        "alt_km": 411.2354480322747,
        "timestamp": "2025-12-22T05:49:02.187464+00:00",
        "meta_object_name": "1998-067XT",
        "meta_object_id": "1998-067XT",
        "meta_epoch": "2025-12-21T16:14:38.830848",
        "meta_mean_motion": 15.52487606,
        "meta_eccentricity": 0.0003834,
        "meta_inclination": 51.6315,
        "meta_ra_of_asc_node": 97.969,
        "meta_arg_of_pericenter": 280.3147,
        "meta_mean_anomaly": 79.741,
        "meta_ephemeris_type": 0,
        "meta_classification_type": "U",
        "meta_norad_cat_id": 66907,
        "meta_element_set_no": 999,
        "meta_rev_at_epoch": 300,
        "meta_bstar": 0.00094407,
        "meta_mean_motion_dot": 0.00058863,
        "meta_mean_motion_ddot": 0,
        "tle_line1": "1 66907U 98067XT  25355.67683832  .00058863  00000+0  94407-3 0  9997",
        "tle_line2": "2 66907  51.6315  97.9690 0003834 280.3147  79.7410 15.52487606  3009"
      },
      "geometry": {
        "type": "Point",
        "coordinates": [
          25.57619391465515,
          -49.78899626667454
        ]
      }
    },
    {
      "type": "Feature",
      "properties": {
        "norad_id": 66908,
        "name": "1998-067XU",
        "group": "last-30-days",
        "lat": -48.18122531597558,
        "lon": 32.82685868391924,
        "alt_km": 410.93794449178404,
        "timestamp": "2025-12-22T05:49:02.187475+00:00",
        "meta_object_name": "1998-067XU",
        "meta_object_id": "1998-067XU",
        "meta_epoch": "2025-12-21T00:46:29.963136",
        "meta_mean_motion": 15.52510982,
        "meta_eccentricity": 0.00039042,
        "meta_inclination": 51.6311,
        "meta_ra_of_asc_node": 101.1653,
        "meta_arg_of_pericenter": 276.2494,
        "meta_mean_anomaly": 83.8051,
        "meta_ephemeris_type": 0,
        "meta_classification_type": "U",
        "meta_norad_cat_id": 66908,
        "meta_element_set_no": 999,
        "meta_rev_at_epoch": 290,
        "meta_bstar": 0.00080289362,
        "meta_mean_motion_dot": 0.00049977,
        "meta_mean_motion_ddot": 0,
        "tle_line1": "1 66908U 98067XU  25355.03229124  .00049977  00000+0  80289-3 0  9997",
        "tle_line2": "2 66908  51.6311 101.1653 0003904 276.2494  83.8051 15.52510982  2909"
      },
      "geometry": {
        "type": "Point",
        "coordinates": [
          32.82685868391924,
          -48.18122531597558
        ]
      }
    },
    {
      "type": "Feature",
      "properties": {
        "norad_id": 66909,
        "name": "SILVERSAT",
        "group": "last-30-days",
        "lat": -45.316955340087155,
        "lon": 41.89609437208485,
        "alt_km": 410.3481001701357,
        "timestamp": "2025-12-22T05:49:02.187485+00:00",
        "meta_object_name": "SILVERSAT",
        "meta_object_id": "1998-067XV",
        "meta_epoch": "2025-12-21T16:11:43.946016",
        "meta_mean_motion": 15.52760734,
        "meta_eccentricity": 0.0003783,
        "meta_inclination": 51.6311,
        "meta_ra_of_asc_node": 97.9558,
        "meta_arg_of_pericenter": 283.7129,
        "meta_mean_anomaly": 76.344,
        "meta_ephemeris_type": 0,
        "meta_classification_type": "U",
        "meta_norad_cat_id": 66909,
        "meta_element_set_no": 999,
        "meta_rev_at_epoch": 300,
        "meta_bstar": 0.0010102,
        "meta_mean_motion_dot": 0.00063686,
        "meta_mean_motion_ddot": 0,
        "tle_line1": "1 66909U 98067XV  25355.67481419  .00063686  00000+0  10102-2 0  9994",
        "tle_line2": "2 66909  51.6311  97.9558 0003783 283.7129  76.3440 15.52760734  3002"
      },
      "geometry": {
        "type": "Point",
        "coordinates": [
          41.89609437208485,
          -45.316955340087155
        ]
      }
    },
    {
      "type": "Feature",
      "properties": {
        "norad_id": 66910,
        "name": "1998-067XW",
        "group": "last-30-days",
        "lat": -40.06882582358806,
        "lon": 53.3173040436698,
        "alt_km": 410.859220510406,
        "timestamp": "2025-12-22T05:49:02.187495+00:00",
        "meta_object_name": "1998-067XW",
        "meta_object_id": "1998-067XW",
        "meta_epoch": "2025-12-21T16:09:10.414944",
        "meta_mean_motion": 15.52740161,
        "meta_eccentricity": 0.0004064,
        "meta_inclination": 51.6307,
        "meta_ra_of_asc_node": 97.9437,
        "meta_arg_of_pericenter": 256.0944,
        "meta_mean_anomaly": 103.9594,
        "meta_ephemeris_type": 0,
        "meta_classification_type": "U",
        "meta_norad_cat_id": 66910,
        "meta_element_set_no": 999,
        "meta_rev_at_epoch": 300,
        "meta_bstar": 0.0009079,
        "meta_mean_motion_dot": 0.000571,
        "meta_mean_motion_ddot": 0,
        "tle_line1": "1 66910U 98067XW  25355.67303721  .00057100  00000+0  90790-3 0  9991",
        "tle_line2": "2 66910  51.6307  97.9437 0004064 256.0944 103.9594 15.52740161  3005"
      },
      "geometry": {
        "type": "Point",
        "coordinates": [
          53.3173040436698,
          -40.06882582358806
        ]
      }
    },
    {
      "type": "Feature",
      "properties": {
        "norad_id": 66911,
        "name": "1998-067XX",
        "group": "last-30-days",
        "lat": -29.418322121125936,
        "lon": 68.53864688323667,
        "alt_km": 409.5170067624904,
        "timestamp": "2025-12-22T05:49:02.187507+00:00",
        "meta_object_name": "1998-067XX",
        "meta_object_id": "1998-067XX",
        "meta_epoch": "2025-12-21T12:59:52.344384",
        "meta_mean_motion": 15.53156659,
        "meta_eccentricity": 0.0003822,
        "meta_inclination": 51.6308,
        "meta_ra_of_asc_node": 98.5657,
        "meta_arg_of_pericenter": 260.7512,
        "meta_mean_anomaly": 99.3046,
        "meta_ephemeris_type": 0,
        "meta_classification_type": "U",
        "meta_norad_cat_id": 66911,
        "meta_element_set_no": 999,
        "meta_rev_at_epoch": 297,
        "meta_bstar": 0.00097482,
        "meta_mean_motion_dot": 0.00062319,
        "meta_mean_motion_ddot": 0,
        "tle_line1": "1 66911U 98067XX  25355.54157806  .00062319  00000+0  97482-3 0  9992",
        "tle_line2": "2 66911  51.6308  98.5657 0003822 260.7512  99.3046 15.53156659  2971"
      },
      "geometry": {
        "type": "Point",
        "coordinates": [
          68.53864688323667,
          -29.418322121125936
        ]
      }
    },
    {
      "type": "Feature",
      "properties": {
        "norad_id": 66912,
        "name": "1998-067XY",
        "group": "last-30-days",
        "lat": -51.031230212570094,
        "lon": -6.439524794553129,
        "alt_km": 412.8262060349589,
        "timestamp": "2025-12-22T05:49:02.187528+00:00",
        "meta_object_name": "1998-067XY",
        "meta_object_id": "1998-067XY",
        "meta_epoch": "2025-12-21T11:41:25.287072",
        "meta_mean_motion": 15.51934859,
        "meta_eccentricity": 0.0004003,
        "meta_inclination": 51.6317,
        "meta_ra_of_asc_node": 98.9521,
        "meta_arg_of_pericenter": 271.7448,
        "meta_mean_anomaly": 88.3083,
        "meta_ephemeris_type": 0,
        "meta_classification_type": "U",
        "meta_norad_cat_id": 66912,
        "meta_element_set_no": 999,
        "meta_rev_at_epoch": 296,
        "meta_bstar": 0.00071547257,
        "meta_mean_motion_dot": 0.0004353,
        "meta_mean_motion_ddot": 0,
        "tle_line1": "1 66912U 98067XY  25355.48709823  .00043530  00000+0  71547-3 0  9996",
        "tle_line2": "2 66912  51.6317  98.9521 0004003 271.7448  88.3083 15.51934859  2960"
      },
      "geometry": {
        "type": "Point",
        "coordinates": [
          -6.439524794553129,
          -51.031230212570094
        ]
      }
    }
  ]
}